*******************************************************************************
Ephemeris / WWW_USER Mon Mar 10 06:57:59 2025 Pasadena, USA      / Horizons    
*******************************************************************************
Target body name: (2018 WD2)                      {source: JPL#7}
Center body name: Earth (399)                     {source: DE441}
Center-site name: Mauna Kea
*******************************************************************************
Start time      : A.D. 2018-Sep-03 04:45:00.0000 UT      
Stop  time      : A.D. 2018-Sep-03 15:57:00.0000 UT      
Step-size       : 1 minutes
*******************************************************************************
Target pole/equ : undefined
Target radii    : undefined                                                    
Center geodetic : 204.5278, 19.8260847, 4.21024   {E-lon(deg),Lat(deg),Alt(km)}
Center cylindric: 204.5278, 6006.35451, 2151.0229 {E-lon(deg),Dxy(km),Dz(km)}
Center pole/equ : ITRF93                          {East-longitude positive}
Center radii    : 6378.137, 6378.137, 6356.752 km {Equator_a, b, pole_c}       
Target primary  : Sun
Vis. interferer : MOON (R_eq= 1737.400) km        {source: DE441}
Rel. light bend : Sun                             {source: DE441}
Rel. lght bnd GM: 1.3271E+11 km^3/s^2                                          
Small-body perts: Yes                             {source: SB441-N16}
Atmos refraction: NO (AIRLESS)
RA format       : HMS
Time format     : CAL 
Calendar mode   : Mixed Julian/Gregorian
RTS-only print  : NO       
EOP file        : eop.250307.p250603                                           
EOP coverage    : DATA-BASED 1962-JAN-20 TO 2025-MAR-07. PREDICTS-> 2025-JUN-02
Units conversion: 1 au= 149597870.700 km, c= 299792.458 km/s, 1 day= 86400.0 s 
Table cut-offs 1: Elevation (-90.0deg=NO ),Airmass (>38.000=NO), Daylight (YES)
Table cut-offs 2: Solar elongation (  0.0,180.0=NO ),Local Hour Angle( 0.0=NO )
Table cut-offs 3: RA/DEC angular rate (     0.0=NO )                           
*******************************************************************************
Initial IAU76/J2000 heliocentric ecliptic osculating elements (au, days, deg.):
  EPOCH=  2458442.5 ! 2018-Nov-20.00 (TDB)         Residual RMS= .32422        
   EC= .524986067713519    QR= .9778174985080528   TP= 2458471.2675125618      
   OM= 251.0855257113189   W=  198.8561547827716   IN= 2.860917524648221       
  Equivalent ICRF heliocentric cartesian coordinates (au, au/d):
   X= 5.933978759455335E-01  Y= 7.796199626272187E-01  Z= 3.534710331364960E-01
  VX=-1.894544763705440E-02 VY= 7.774789113426014E-03 VZ= 2.252803318104249E-03
Asteroid physical parameters (km, seconds, rotational period in hours):        
   GM= n.a.                RAD= n.a.               ROTPER= n.a.                
   H= 26.2                 G= .150                 B-V= n.a.                   
                           ALBEDO= n.a.            STYP= n.a.                  
*******************************************************************************
 Date__(UT)__HR:MN     R.A._________(ICRF)_________DEC
******************************************************
$$SOE
 2018-Sep-03 06:48     01 03 42.011647 +14 04 57.13250
 2018-Sep-03 06:49     01 03 42.035763 +14 04 57.50343
 2018-Sep-03 06:50     01 03 42.059861 +14 04 57.87435
 2018-Sep-03 06:51     01 03 42.083941 +14 04 58.24527
 2018-Sep-03 06:52     01 03 42.108004 +14 04 58.61618
 2018-Sep-03 06:53     01 03 42.132049 +14 04 58.98708
 2018-Sep-03 06:54     01 03 42.156077 +14 04 59.35799
 2018-Sep-03 06:55     01 03 42.180087 +14 04 59.72888
 2018-Sep-03 06:56     01 03 42.204079 +14 05 00.09977
 2018-Sep-03 06:57     01 03 42.228054 +14 05 00.47065
 2018-Sep-03 06:58     01 03 42.252011 +14 05 00.84153
 2018-Sep-03 06:59     01 03 42.275950 +14 05 01.21240
 2018-Sep-03 07:00     01 03 42.299872 +14 05 01.58326
 2018-Sep-03 07:01     01 03 42.323776 +14 05 01.95411
 2018-Sep-03 07:02     01 03 42.347663 +14 05 02.32496
 2018-Sep-03 07:03     01 03 42.371532 +14 05 02.69579
 2018-Sep-03 07:04     01 03 42.395384 +14 05 03.06662
 2018-Sep-03 07:05     01 03 42.419218 +14 05 03.43744
 2018-Sep-03 07:06     01 03 42.443034 +14 05 03.80826
 2018-Sep-03 07:07     01 03 42.466833 +14 05 04.17906
 2018-Sep-03 07:08     01 03 42.490614 +14 05 04.54985
 2018-Sep-03 07:09     01 03 42.514378 +14 05 04.92064
 2018-Sep-03 07:10     01 03 42.538124 +14 05 05.29141
 2018-Sep-03 07:11     01 03 42.561853 +14 05 05.66218
 2018-Sep-03 07:12     01 03 42.585564 +14 05 06.03293
 2018-Sep-03 07:13     01 03 42.609258 +14 05 06.40367
 2018-Sep-03 07:14     01 03 42.632934 +14 05 06.77440
 2018-Sep-03 07:15     01 03 42.656593 +14 05 07.14512
 2018-Sep-03 07:16     01 03 42.680234 +14 05 07.51583
 2018-Sep-03 07:17     01 03 42.703858 +14 05 07.88653
 2018-Sep-03 07:18     01 03 42.727465 +14 05 08.25722
 2018-Sep-03 07:19     01 03 42.751054 +14 05 08.62789
 2018-Sep-03 07:20     01 03 42.774625 +14 05 08.99855
 2018-Sep-03 07:21     01 03 42.798180 +14 05 09.36920
 2018-Sep-03 07:22     01 03 42.821717 +14 05 09.73983
 2018-Sep-03 07:23     01 03 42.845236 +14 05 10.11045
 2018-Sep-03 07:24     01 03 42.868738 +14 05 10.48106
 2018-Sep-03 07:25     01 03 42.892223 +14 05 10.85165
 2018-Sep-03 07:26     01 03 42.915691 +14 05 11.22223
 2018-Sep-03 07:27     01 03 42.939141 +14 05 11.59280
 2018-Sep-03 07:28     01 03 42.962574 +14 05 11.96335
 2018-Sep-03 07:29     01 03 42.985989 +14 05 12.33389
 2018-Sep-03 07:30     01 03 43.009388 +14 05 12.70441
 2018-Sep-03 07:31     01 03 43.032769 +14 05 13.07491
 2018-Sep-03 07:32     01 03 43.056133 +14 05 13.44540
 2018-Sep-03 07:33     01 03 43.079479 +14 05 13.81587
 2018-Sep-03 07:34     01 03 43.102809 +14 05 14.18633
 2018-Sep-03 07:35     01 03 43.126121 +14 05 14.55677
 2018-Sep-03 07:36     01 03 43.149416 +14 05 14.92720
 2018-Sep-03 07:37     01 03 43.172694 +14 05 15.29760
 2018-Sep-03 07:38     01 03 43.195955 +14 05 15.66799
 2018-Sep-03 07:39     01 03 43.219199 +14 05 16.03837
 2018-Sep-03 07:40     01 03 43.242426 +14 05 16.40872
 2018-Sep-03 07:41     01 03 43.265635 +14 05 16.77906
 2018-Sep-03 07:42     01 03 43.288828 +14 05 17.14938
 2018-Sep-03 07:43     01 03 43.312003 +14 05 17.51968
 2018-Sep-03 07:44     01 03 43.335162 +14 05 17.88996
 2018-Sep-03 07:45     01 03 43.358303 +14 05 18.26022
 2018-Sep-03 07:46     01 03 43.381428 +14 05 18.63047
 2018-Sep-03 07:47     01 03 43.404536 +14 05 19.00069
 2018-Sep-03 07:48     01 03 43.427626 +14 05 19.37089
 2018-Sep-03 07:49     01 03 43.450700 +14 05 19.74108
 2018-Sep-03 07:50     01 03 43.473757 +14 05 20.11124
 2018-Sep-03 07:51     01 03 43.496797 +14 05 20.48138
 2018-Sep-03 07:52     01 03 43.519821 +14 05 20.85150
 2018-Sep-03 07:53     01 03 43.542827 +14 05 21.22161
 2018-Sep-03 07:54     01 03 43.565817 +14 05 21.59169
 2018-Sep-03 07:55     01 03 43.588790 +14 05 21.96174
 2018-Sep-03 07:56     01 03 43.611746 +14 05 22.33178
 2018-Sep-03 07:57     01 03 43.634685 +14 05 22.70179
 2018-Sep-03 07:58     01 03 43.657608 +14 05 23.07179
 2018-Sep-03 07:59     01 03 43.680514 +14 05 23.44176
 2018-Sep-03 08:00     01 03 43.703404 +14 05 23.81170
 2018-Sep-03 08:01     01 03 43.726277 +14 05 24.18163
 2018-Sep-03 08:02     01 03 43.749133 +14 05 24.55153
 2018-Sep-03 08:03     01 03 43.771973 +14 05 24.92140
 2018-Sep-03 08:04     01 03 43.794796 +14 05 25.29126
 2018-Sep-03 08:05     01 03 43.817602 +14 05 25.66109
 2018-Sep-03 08:06     01 03 43.840393 +14 05 26.03089
 2018-Sep-03 08:07     01 03 43.863166 +14 05 26.40067
 2018-Sep-03 08:08     01 03 43.885924 +14 05 26.77042
 2018-Sep-03 08:09     01 03 43.908665 +14 05 27.14015
 2018-Sep-03 08:10     01 03 43.931389 +14 05 27.50986
 2018-Sep-03 08:11     01 03 43.954097 +14 05 27.87954
 2018-Sep-03 08:12     01 03 43.976789 +14 05 28.24919
 2018-Sep-03 08:13     01 03 43.999465 +14 05 28.61882
 2018-Sep-03 08:14     01 03 44.022124 +14 05 28.98842
 2018-Sep-03 08:15     01 03 44.044768 +14 05 29.35800
 2018-Sep-03 08:16     01 03 44.067395 +14 05 29.72754
 2018-Sep-03 08:17     01 03 44.090005 +14 05 30.09706
 2018-Sep-03 08:18     01 03 44.112600 +14 05 30.46656
 2018-Sep-03 08:19     01 03 44.135179 +14 05 30.83602
 2018-Sep-03 08:20     01 03 44.157741 +14 05 31.20546
 2018-Sep-03 08:21     01 03 44.180288 +14 05 31.57487
 2018-Sep-03 08:22     01 03 44.202818 +14 05 31.94426
 2018-Sep-03 08:23     01 03 44.225333 +14 05 32.31361
 2018-Sep-03 08:24     01 03 44.247831 +14 05 32.68293
 2018-Sep-03 08:25     01 03 44.270314 +14 05 33.05223
 2018-Sep-03 08:26     01 03 44.292781 +14 05 33.42150
 2018-Sep-03 08:27     01 03 44.315232 +14 05 33.79073
 2018-Sep-03 08:28     01 03 44.337667 +14 05 34.15994
 2018-Sep-03 08:29     01 03 44.360086 +14 05 34.52912
 2018-Sep-03 08:30     01 03 44.382490 +14 05 34.89827
 2018-Sep-03 08:31     01 03 44.404878 +14 05 35.26739
 2018-Sep-03 08:32     01 03 44.427250 +14 05 35.63647
 2018-Sep-03 08:33     01 03 44.449607 +14 05 36.00553
 2018-Sep-03 08:34     01 03 44.471948 +14 05 36.37455
 2018-Sep-03 08:35     01 03 44.494273 +14 05 36.74355
 2018-Sep-03 08:36     01 03 44.516583 +14 05 37.11251
 2018-Sep-03 08:37     01 03 44.538878 +14 05 37.48144
 2018-Sep-03 08:38     01 03 44.561157 +14 05 37.85034
 2018-Sep-03 08:39     01 03 44.583420 +14 05 38.21920
 2018-Sep-03 08:40     01 03 44.605668 +14 05 38.58804
 2018-Sep-03 08:41     01 03 44.627901 +14 05 38.95684
 2018-Sep-03 08:42     01 03 44.650119 +14 05 39.32561
 2018-Sep-03 08:43     01 03 44.672321 +14 05 39.69434
 2018-Sep-03 08:44     01 03 44.694508 +14 05 40.06304
 2018-Sep-03 08:45     01 03 44.716680 +14 05 40.43171
 2018-Sep-03 08:46     01 03 44.738837 +14 05 40.80034
 2018-Sep-03 08:47     01 03 44.760979 +14 05 41.16894
 2018-Sep-03 08:48     01 03 44.783105 +14 05 41.53751
 2018-Sep-03 08:49     01 03 44.805217 +14 05 41.90604
 2018-Sep-03 08:50     01 03 44.827313 +14 05 42.27454
